NORAD_CAT_ID,OBJECT_NAME,OBJECT_TYPE,EPOCH,MEAN_MOTION,ECCENTRICITY,INCLINATION,RA_OF_ASC_NODE,ARG_OF_PERICENTER,MEAN_ANOMALY,BSTAR,MEAN_MOTION_DOT,MEAN_MOTION_DDOT,TLE_LINE0,TLE_LINE1,TLE_LINE2,SEMIMAJOR_AXIS,PERIOD,APOGEE,PERIGEE,DECAYED
56816.0,STARLINK-6067,PAYLOAD,2024-07-28 04:01:06,14.98330531,0.0003207,70.0001,10.6524,270.3407,89.7385,3.9557e-06,-4.6e-07,0.0,0 STARLINK-6067,1 56816U 23078BB  24210.16743124 -.00000046  00000-0  39557-5 0  9998,2 56816  70.0001  10.6524 0003207 270.3407  89.7385 14.98330531 65131,6950.191,96.107,574.285,569.827,0.0
56816.0,STARLINK-6067,PAYLOAD,2024-07-28 20:02:26,14.98339296,0.0003188,70.0003,8.9691,268.868,91.2114,0.00014155,1.597e-05,0.0,0 STARLINK-6067,1 56816U 23078BB  24210.83502550  .00001597  00000-0  14155-3 0  9994,2 56816  70.0003   8.9691 0003188 268.8680  91.2114 14.98339296 65237,6950.164,96.106,574.245,569.813,0.0
56816.0,STARLINK-6067,PAYLOAD,2024-07-29 10:27:39,14.9833118,0.0003208,70.0017,7.4542,268.365,91.7141,1.9678e-05,1.42e-06,0.0,0 STARLINK-6067,1 56816U 23078BB  24211.43586948  .00000142  00000-0  19678-4 0  9995,2 56816  70.0017   7.4542 0003208 268.3650  91.7141 14.98331180 65325,6950.189,96.107,574.284,569.825,0.0
56816.0,STARLINK-6067,PAYLOAD,2024-07-29 20:04:27,14.9833495,0.0003185,70.0018,6.4442,269.3169,90.7625,0.00024168,2.792e-05,0.0,0 STARLINK-6067,1 56816U 23078BB  24211.83642858  .00002792  00000-0  24168-3 0  9994,2 56816  70.0018   6.4442 0003185 269.3169  90.7625 14.98334950 65126,6950.178,96.107,574.256,569.829,0.0
56816.0,STARLINK-6067,PAYLOAD,2024-07-30 10:29:39,14.98334744,0.0003071,70.0022,4.9284,269.2422,90.8385,0.00018234,2.084e-05,0.0,0 STARLINK-6067,1 56816U 23078BB  24212.43726845  .00002084  00000-0  18234-3 0  9991,2 56816  70.0022   4.9284 0003071 269.2422  90.8385 14.98334744 65476,6950.178,96.107,574.178,569.909,0.0
56816.0,STARLINK-6067,PAYLOAD,2024-07-30 20:06:28,14.98336361,0.0002985,70.0023,3.9193,270.483,89.5987,0.00050974,5.995e-05,0.0,0 STARLINK-6067,1 56816U 23078BB  24212.83782833  .00005995  00000-0  50974-3 0  9995,2 56816  70.0023   3.9193 0002985 270.4830  89.5987 14.98336361 65273,6950.173,96.107,574.113,569.964,0.0
56816.0,STARLINK-6067,PAYLOAD,2024-07-31 12:07:49,14.98325816,0.000294,70.0029,2.2357,271.8187,88.2636,9.9567e-06,2.6e-07,0.0,0 STARLINK-6067,1 56816U 23078BB  24213.50543272  .00000026  00000-0  99567-5 0  9995,2 56816  70.0029   2.2357 0002940 271.8187  88.2636 14.98325816 65634,6950.206,96.107,574.114,570.027,0.0
56816.0,STARLINK-6067,PAYLOAD,2024-07-31 13:43:57,14.98325256,0.0003162,70.0015,2.0682,270.2235,89.8562,9.5565e-05,1.047e-05,0.0,0 STARLINK-6067,1 56816U 23078BB  24213.57219505  .00001047  00000-0  95565-4 0  9998,2 56816  70.0015   2.0682 0003162 270.2235  89.8562 14.98325256 65387,6950.208,96.107,574.27,569.875,0.0
56816.0,STARLINK-6067,PAYLOAD,2024-07-31 20:08:30,14.98311794,0.0002994,70.0014,1.3944,270.3139,89.7677,0.00041643,4.877e-05,0.0,0 STARLINK-6067,1 56816U 23078BB  24213.83923962  .00004877  00000-0  41643-3 0  9997,2 56816  70.0014   1.3944 0002994 270.3139  89.7677 14.98311794 65686,6950.249,96.108,574.195,570.033,0.0
56816.0,STARLINK-6067,PAYLOAD,2024-08-01 12:09:49,14.98338485,0.0003155,70.0012,359.7113,270.3335,89.7462,0.00015028,1.701e-05,0.0,0 STARLINK-6067,1 56816U 23078BB  24214.50682443  .00001701  00000-0  15028-3 0  9999,2 56816  70.0012 359.7113 0003155 270.3335  89.7462 14.98338485 65521,6950.167,96.106,574.224,569.839,0.0
56816.0,STARLINK-6067,PAYLOAD,2024-08-01 20:10:29,14.98349236,0.0003089,70.0015,358.8696,272.3639,87.7166,0.00022153,2.553e-05,0.0,0 STARLINK-6067,1 56816U 23078BB  24214.84061439  .00002553  00000-0  22153-3 0  9995,2 56816  70.0015 358.8696 0003089 272.3639  87.7166 14.98349236 65834,6950.133,96.106,574.145,569.852,0.0
56816.0,STARLINK-6067,PAYLOAD,2024-08-02 02:35:02,14.98333933,0.0003061,70.0033,358.1958,273.6037,86.4772,0.00015701,1.781e-05,0.0,0 STARLINK-6067,1 56816U 23078BB  24215.10766398  .00001781  00000-0  15701-3 0  9994,2 56816  70.0033 358.1958 0003061 273.6037  86.4772 14.98333933 65874,6950.181,96.107,574.173,569.918,0.0
56816.0,STARLINK-6067,PAYLOAD,2024-08-02 15:24:07,14.983295,0.0002854,70.0037,356.8512,270.0269,90.0563,1.365e-05,7e-07,0.0,0 STARLINK-6067,1 56816U 23078BB  24215.64174860  .00000070  00000-0  13650-4 0  9992,2 56816  70.0037 356.8512 0002854 270.0269  90.0563 14.98329500 65690,6950.194,96.107,574.043,570.076,0.0
56816.0,STARLINK-6067,PAYLOAD,2024-08-02 20:12:31,14.98330717,0.0003059,70.0027,356.3452,269.098,90.9828,0.000115,1.279e-05,0.0,0 STARLINK-6067,1 56816U 23078BB  24215.84202884  .00001279  00000-0  11500-3 0  9995,2 56816  70.0027 356.3452 0003059 269.0980  90.9828 14.98330717 65980,6950.191,96.107,574.182,569.93,0.0
56816.0,STARLINK-6067,PAYLOAD,2024-08-03 15:26:07,14.98338565,0.0003113,70.003,354.3251,272.0944,87.9858,0.00033861,3.95e-05,0.0,0 STARLINK-6067,1 56816U 23078BB  24216.64314422  .00003950  00000-0  33861-3 0  9998,2 56816  70.0030 354.3251 0003113 272.0944  87.9858 14.98338565 65847,6950.166,96.106,574.195,569.868,0.0
56816.0,STARLINK-6067,PAYLOAD,2024-08-03 18:38:23,14.98339388,0.0003109,70.003,353.9884,271.5979,88.4824,0.00040421,4.734e-05,0.0,0 STARLINK-6067,1 56816U 23078BB  24216.77666406  .00004734  00000-0  40421-3 0  9995,2 56816  70.0030 353.9884 0003109 271.5979  88.4824 14.98339388 65866,6950.164,96.106,574.19,569.868,0.0
56816.0,STARLINK-6067,PAYLOAD,2024-08-04 12:15:52,14.98329282,0.0003072,70.0033,352.1372,272.2719,87.8089,0.00014923,1.688e-05,0.0,0 STARLINK-6067,1 56816U 23078BB  24217.51102849  .00001688  00000-0  14923-3 0  9997,2 56816  70.0033 352.1372 0003072 272.2719  87.8089 14.98329282 66231,6950.195,96.107,574.195,569.925,0.0
56816.0,STARLINK-6067,PAYLOAD,2024-08-04 13:52:00,14.98329029,0.0003079,70.0033,351.9689,272.1677,87.9129,0.00013471,1.515e-05,0.0,0 STARLINK-6067,1 56816U 23078BB  24217.57778857  .00001515  00000-0  13471-3 0  9997,2 56816  70.0033 351.9689 0003079 272.1677  87.9129 14.98329029 65984,6950.196,96.107,574.201,569.921,0.0
56816.0,STARLINK-6067,PAYLOAD,2024-08-04 18:40:24,14.98334806,0.0002928,70.0032,351.4635,268.1779,91.9045,0.00023921,2.763e-05,0.0,0 STARLINK-6067,1 56816U 23078BB  24217.77806565  .00002763  00000-0  23921-3 0  9994,2 56816  70.0032 351.4635 0002928 268.1779  91.9045 14.98334806 66015,6950.178,96.107,574.078,570.008,0.0
56816.0,STARLINK-6067,PAYLOAD,2024-08-05 12:17:53,14.98339142,0.0003139,70.0033,349.6125,270.7685,89.3114,0.00026783,3.105e-05,0.0,0 STARLINK-6067,1 56816U 23078BB  24218.51242250  .00003105  00000-0  26783-3 0  9992,2 56816  70.0033 349.6125 0003139 270.7685  89.3114 14.98339142 66385,6950.165,96.106,574.211,569.848,0.0
56816.0,STARLINK-6067,PAYLOAD,2024-08-05 18:42:25,14.98348903,0.0003016,70.0036,348.9385,269.5163,90.565,0.00046945,5.516e-05,0.0,0 STARLINK-6067,1 56816U 23078BB  24218.77945737  .00005516  00000-0  46945-3 0  9990,2 56816  70.0036 348.9385 0003016 269.5163  90.5650 14.98348903 66169,6950.134,96.106,574.096,569.903,0.0
56816.0,STARLINK-6067,PAYLOAD,2024-08-06 12:19:54,14.98326913,0.0003537,70.0033,347.0874,279.0797,80.9962,-9.0946e-05,-1.178e-05,0.0,0 STARLINK-6067,1 56816U 23078BB  24219.51382485 -.00001178  00000-0 -90946-4 0  9991,2 56816  70.0033 347.0874 0003537 279.0797  80.9962 14.98326913 66533,6950.202,96.107,574.526,569.609,0.0
56816.0,STARLINK-6067,PAYLOAD,2024-08-06 15:32:10,14.98327027,0.0003287,70.0029,346.7508,274.2192,85.8591,-5.2591e-05,-7.2e-06,0.0,0 STARLINK-6067,1 56816U 23078BB  24219.64734592 -.00000720  00000-0 -52591-4 0  9991,2 56816  70.0029 346.7508 0003287 274.2192  85.8591 14.98327027 66298,6950.202,96.107,574.352,569.783,0.0
56816.0,STARLINK-6067,PAYLOAD,2024-08-06 18:44:26,14.98330949,0.0003199,70.0031,346.4142,273.3445,86.7348,2.5365e-05,2.1e-06,0.0,0 STARLINK-6067,1 56816U 23078BB  24219.78086410  .00000210  00000-0  25365-4 0  9996,2 56816  70.0031 346.4142 0003199 273.3445  86.7348 14.98330949 66315,6950.19,96.107,574.278,569.832,0.0
56816.0,STARLINK-6067,PAYLOAD,2024-08-07 12:21:55,14.98330235,0.0003283,70.0028,344.5627,272.9705,87.1078,-1.3863e-06,-1.1e-06,0.0,0 STARLINK-6067,1 56816U 23078BB  24220.51522472 -.00000110  00000-0 -13863-5 0  9994,2 56816  70.0028 344.5627 0003283 272.9705  87.1078 14.98330235 66689,6950.192,96.107,574.339,569.775,0.0
56816.0,STARLINK-6067,PAYLOAD,2024-08-07 18:46:27,14.98327668,0.0003286,70.0029,343.8897,272.1755,87.9028,-3.3657e-05,-4.95e-06,0.0,0 STARLINK-6067,1 56816U 23078BB  24220.78226665 -.00000495  00000-0 -33657-4 0  9996,2 56816  70.0029 343.8897 0003286 272.1755  87.9028 14.98327668 66466,6950.2,96.107,574.349,569.781,0.0
56816.0,STARLINK-6067,PAYLOAD,2024-08-08 12:23:56,14.98338365,0.0003474,70.003,342.0386,273.2447,86.8315,0.0001198,1.337e-05,0.0,0 STARLINK-6067,1 56816U 23078BB  24221.51662287  .00001337  00000-0  11980-3 0  9990,2 56816  70.0030 342.0386 0003474 273.2447  86.8315 14.98338365 66576,6950.167,96.106,574.447,569.618,0.0
56816.0,STARLINK-6067,PAYLOAD,2024-08-08 17:12:20,14.98345691,0.0003297,70.0032,341.5338,274.0119,86.0663,0.00053679,6.32e-05,0.0,0 STARLINK-6067,1 56816U 23078BB  24221.71689972  .00006320  00000-0  53679-3 0  9990,2 56816  70.0032 341.5338 0003297 274.0119  86.0663 14.98345691 66867,6950.144,96.106,574.301,569.718,0.0
56816.0,STARLINK-6067,PAYLOAD,2024-08-09 12:25:57,14.98329325,0.000326,70.0035,339.5152,268.7582,91.3204,0.00013014,1.46e-05,0.0,0 STARLINK-6067,1 56816U 23078BB  24222.51802618  .00001460  00000-0  13014-3 0  9992,2 56816  70.0035 339.5152 0003260 268.7582  91.3204 14.98329325 66984,6950.195,96.107,574.326,569.794,0.0
56816.0,STARLINK-6067,PAYLOAD,2024-08-09 14:02:05,14.98332486,0.0003162,70.0041,339.3481,268.1947,91.885,0.00012179,1.361e-05,0.0,0 STARLINK-6067,1 56816U 23078BB  24222.58478386  .00001361  00000-0  12179-3 0  9991,2 56816  70.0041 339.3481 0003162 268.1947  91.8850 14.98332486 66731,6950.185,96.107,574.248,569.853,0.0
